{"version": 0.6, "generator": "Overpass API 0.7.62.8 e802775f", "osm3s": {"timestamp_osm_base": "2025-08-25T19:35:02Z", "copyright": "The data included in this document is from www.openstreetmap.org. The data is made available under ODbL."}, "elements": [{"type": "node", "id": 1347716867, "lat": 19.1865736, "lon": 72.8350829, "tags": {"addr:city": "Mumbai", "addr:district": "Malad West", "addr:postcode": "400064", "addr:street": "Link Road", "description": "Excellent of sports and atheletic equipment.", "name": "Dechatholon", "opening_hours": "Closes at 10 pm", "payment:cash": "yes", "payment:credit_cards": "yes", "payment:debit_cards": "yes", "phone": "08904241851", "shop": "supermarket"}}, {"type": "node", "id": 1416499241, "lat": 19.2177069, "lon": 72.8285354, "tags": {"addr:city": "mumbai", "addr:postcode": "400067", "addr:street": "RDP Road No 5", "name": "Apna Bazaar", "organic": "yes", "shop": "supermarket"}}, {"type": "node", "id": 1416514757, "lat": 19.2131555, "lon": 72.8422201, "tags": {"addr:city": "Mumbai, Maharashtra", "addr:postcode": "400067", "addr:street": "Boraspada Road", "brand": "DMart", "brand:wikidata": "Q5203271", "contact:instagram": "dmartindiaofficial", "level": "2", "name": "DMart", "opening_hours": "Mo-Su 07:00-22:00", "organic": "yes", "phone": "022-33400500", "shop": "supermarket", "website": "http://dmartindia.com", "wheelchair": "limited"}}, {"type": "node", "id": 1842179248, "lat": 19.2269553, "lon": 72.8629775, "tags": {"addr:housename": "Metro", "addr:postcode": "400066", "addr:street": "Western Express Highway", "name": "Metro", "shop": "supermarket"}}, {"type": "node", "id": 1855825021, "lat": 19.1204539, "lon": 72.9263887, "tags": {"name": "Home Town", "shop": "supermarket"}}, {"type": "node", "id": 1856751396, "lat": 19.1633096, "lon": 72.9405257}, {"type": "node", "id": 1936888666, "lat": 19.230373, "lon": 72.8402614, "tags": {"addr:city": "Mumbai", "addr:country": "IN", "addr:postcode": "400091", "addr:state": "Maharashtra", "name": "Gangar Supermarket", "shop": "supermarket", "wheelchair": "no"}}, {"type": "node", "id": 2018031439, "lat": 19.0705394, "lon": 72.8988757, "tags": {"name": "R S Mani Supermarket", "shop": "supermarket"}}, {"type": "node", "id": 2025969633, "lat": 19.1035347, "lon": 72.8316244, "tags": {"name": "Sahakari Bhandar", "shop": "supermarket"}}, {"type": "node", "id": 2097757617, "lat": 19.209009, "lon": 72.8739023, "tags": {"brand": "DMart", "brand:wikidata": "Q5203271", "name": "DMart", "payment:cash": "yes", "payment:credit_cards": "yes", "payment:debit_cards": "yes", "shop": "supermarket"}}, {"type": "node", "id": 2097757621, "lat": 19.2123321, "lon": 72.8728884, "tags": {"addr:city": "Mumbai", "addr:housenumber": "Shop No 33 - 35", "addr:postcode": "400101", "addr:street": "Viceroy Court, opp. Domino's Pizza, Thakur Village, Kandivali East, Mumbai, Maharashtra 400101", "amenity": "ice_cream", "name": "Nature's Basket", "organic": "yes", "shop": "supermarket", "website": "https://www.naturesbasket.co.in/"}}, {"type": "node", "id": 2148659193, "lat": 19.1295814, "lon": 72.8254261}, {"type": "node", "id": 2148659199, "lat": 19.129622, "lon": 72.825183}, {"type": "node", "id": 2148659204, "lat": 19.1296321, "lon": 72.8254887}, {"type": "node", "id": 2148659208, "lat": 19.1295836, "lon": 72.8254029}, {"type": "node", "id": 2148659216, "lat": 19.1295867, "lon": 72.8254454}, {"type": "node", "id": 2245075636, "lat": 19.1028855, "lon": 72.9169028, "tags": {"name": "career classes", "shop": "supermarket"}}, {"type": "node", "id": 2456716264, "lat": 19.0887329, "lon": 72.8376577, "tags": {"addr:housenumber": "Acme Mall", "addr:street": "Swami Vivekanand Road", "name": "Reliance Retail ", "shop": "supermarket"}}, {"type": "node", "id": 2457609056, "lat": 19.0844444, "lon": 72.8364463, "tags": {"name": "Society Stores", "shop": "supermarket"}}, {"type": "node", "id": 2930708409, "lat": 19.0618939, "lon": 72.9247918, "tags": {"addr:city": "mumbai", "addr:housenumber": "baiganwadi govandi", "addr:postcode": "400043", "addr:street": "Road No. 9", "name": "Baiganwadi", "shop": "supermarket"}}, {"type": "node", "id": 2930713325, "lat": 19.0621201, "lon": 72.9088413, "tags": {"addr:city": "MUMBAI", "addr:housenumber": "00", "addr:postcode": "400089", "addr:street": "P.L. Lokhande Marg", "name": "super market", "operator": "sunita zen", "shop": "supermarket"}}, {"type": "node", "id": 3202729954, "lat": 19.0609035, "lon": 72.9053072, "tags": {"addr:city": "MUMBAI", "addr:housenumber": "456", "addr:postcode": "123", "addr:street": "P.L. Lokhande Marg", "name": "apna super market", "operator": "sona", "shop": "supermarket"}}, {"type": "node", "id": 3204191417, "lat": 19.0662807, "lon": 72.9284284, "tags": {"shop": "supermarket"}}, {"type": "node", "id": 3204405483, "lat": 19.0632141, "lon": 72.8847166, "tags": {"name": "nehru nagar market", "shop": "supermarket"}}, {"type": "node", "id": 3205945177, "lat": 19.0633138, "lon": 72.929183, "tags": {"addr:city": "mumbai", "addr:housenumber": "road no13 plot no.33 shivaji nagar gowandi mumbai 400043", "addr:postcode": "400043", "addr:street": "road No. 13", "name": "lucky retail shop", "opening_hours": "8:00-22:00", "operator": "akram", "shop": "supermarket"}}, {"type": "node", "id": 3206026956, "lat": 19.0581886, "lon": 72.8901758, "tags": {"name": "dolls shops", "shop": "supermarket"}}, {"type": "node", "id": 3213767198, "lat": 19.0616617, "lon": 72.9247589, "tags": {"addr:city": "mumbai", "addr:housenumber": "room no:1,line:f,plot no:12", "addr:postcode": "400043", "addr:street": "Road No. 8", "name": "ravi market", "shop": "supermarket"}}, {"type": "node", "id": 3213782329, "lat": 19.0604731, "lon": 72.9190762, "tags": {"addr:city": "mumbai", "addr:housenumber": "new gautam nagar plot no 4 bhimwadi road opp r p power laundry", "addr:postcode": "400043", "addr:street": "Jeejabai Bhosle Marg", "name": "maharashtra lime depot", "opening_hours": "7:00-22:00", "operator": "Noorullah", "shop": "supermarket"}}, {"type": "node", "id": 3215560185, "lat": 19.064604, "lon": 72.8997447, "tags": {"addr:city": "MUMBAI", "addr:housenumber": "near gulshan baug cafe", "addr:postcode": "400089", "addr:street": "P.L. Lokhande Marg", "name": "DWARKA Super market", "shop": "supermarket"}}, {"type": "node", "id": 3216946229, "lat": 19.0597585, "lon": 72.8880756, "tags": {"addr:city": "MUMBAI chembur", "addr:postcode": "400071", "addr:street": "THAKKAR BAPPA COLONY", "name": "FOOTWEAR", "operator": "AJAY", "shop": "supermarket"}}, {"type": "node", "id": 3217156681, "lat": 19.0536947, "lon": 72.9274711, "tags": {"addr:city": "mumbai", "addr:housenumber": "lallubai compound", "name": "local market", "shop": "supermarket"}}, {"type": "node", "id": 3226348964, "lat": 19.1837893, "lon": 72.9514262, "tags": {"addr:city": "Mulund (West)", "addr:postcode": "400080", "addr:street": "LBS Marg", "name": "Big Bazar", "shop": "supermarket"}}, {"type": "node", "id": 3518529217, "lat": 19.0935528, "lon": 72.8838529, "tags": {"addr:city": "Mumabi", "addr:postcode": "400072", "addr:street": "90 Feet Road", "name": "Big Bazzar", "shop": "supermarket"}}, {"type": "node", "id": 3529551822, "lat": 19.0521801, "lon": 72.9321631, "tags": {"name": "market", "shop": "supermarket"}}, {"type": "node", "id": 3529565707, "lat": 19.0700082, "lon": 72.8785142, "tags": {"name": "kurla market", "shop": "supermarket"}}, {"type": "node", "id": 3587627216, "lat": 19.1921323, "lon": 72.8336935}, {"type": "node", "id": 3587627217, "lat": 19.1921607, "lon": 72.8338023}, {"type": "node", "id": 3587627226, "lat": 19.1922672, "lon": 72.8336541}, {"type": "node", "id": 3587627230, "lat": 19.1922956, "lon": 72.8337629}, {"type": "node", "id": 3589670795, "lat": 19.0417687, "lon": 72.9202499}, {"type": "node", "id": 3589670797, "lat": 19.0417854, "lon": 72.9199645}, {"type": "node", "id": 3589670811, "lat": 19.0419691, "lon": 72.920263}, {"type": "node", "id": 3589670812, "lat": 19.0419858, "lon": 72.9199776}, {"type": "node", "id": 3602880296, "lat": 19.1108399, "lon": 72.8975037, "tags": {"brand": "DMart", "brand:wikidata": "Q5203271", "name": "DMart", "shop": "supermarket"}}, {"type": "node", "id": 3617444120, "lat": 19.0523615, "lon": 72.8242439}, {"type": "node", "id": 3617444122, "lat": 19.0523734, "lon": 72.8243751}, {"type": "node", "id": 3617444124, "lat": 19.0524459, "lon": 72.8242354}, {"type": "node", "id": 3617444125, "lat": 19.0524602, "lon": 72.8243663}, {"type": "node", "id": 3877840963, "lat": 19.1148108, "lon": 72.8886648, "tags": {"name": "Saki vihar Dark store", "operator": "Big basket", "shop": "supermarket"}}, {"type": "node", "id": 4309613193, "lat": 19.0567563, "lon": 72.8394652, "tags": {"addr:city": "Bandra, Mumbai", "addr:postcode": "400050", "addr:street": "Gurunanak Marg", "name": "Sahakari Bhandar", "shop": "supermarket"}}, {"type": "node", "id": 4350861908, "lat": 19.0555664, "lon": 72.8319284, "tags": {"addr:city": "Bandra, Mumbai", "addr:postcode": "400050", "addr:street": "Ramdas Naik Road", "brand": "Nature's Basket", "brand:wikidata": "Q28174237", "brand:wikipedia": "en:Nature's Basket", "name": "Nature's Basket", "shop": "supermarket"}}, {"type": "node", "id": 4569909367, "lat": 19.0669359, "lon": 72.9044168, "tags": {"addr:city": "cheedanagar, chembur,mumbai", "addr:housenumber": "Shop No 2&3, PCAG Building", "addr:postcode": "400089", "addr:street": "Road No 4", "name": "Amrut Stores", "opening_hours": "09:00-21:00", "operator": "Amrut Grain Stores", "phone": "+912225259437, +912225253782, +912225252023", "shop": "supermarket"}}, {"type": "node", "id": 4577075790, "lat": 19.1182503, "lon": 72.9113594, "tags": {"addr:postcode": "400076", "addr:street": "Main St, Hiranandani Gardens,", "name:en": "HAIKO", "opening_hours": "Mo-Su 07:30-22:00", "phone": "096195 87525", "shop": "supermarket", "website": "https://www.haikosupermarket.com/"}}, {"type": "node", "id": 4761370023, "lat": 19.1196972, "lon": 72.907868, "tags": {"brand": "Nature's Basket", "brand:wikidata": "Q28174237", "name": "Nature's Basket", "name:en": "Natures Basket", "shop": "supermarket"}}, {"type": "node", "id": 4791179122, "lat": 19.1698927, "lon": 72.9589573, "tags": {"addr:postcode": "400081", "addr:street": "Lokmanya Tilak Road", "name:en": "Nandu Oil", "shop": "supermarket"}}, {"type": "node", "id": 5125466819, "lat": 19.0967081, "lon": 72.8902067, "tags": {"name": "Grocery Outlet", "shop": "supermarket"}}, {"type": "node", "id": 5663434478, "lat": 19.1720777, "lon": 72.9585114, "tags": {"name": "Parivar", "shop": "supermarket"}}, {"type": "node", "id": 5924611779, "lat": 19.1637404, "lon": 72.9394233}, {"type": "node", "id": 5924611780, "lat": 19.1645131, "lon": 72.9400831}, {"type": "node", "id": 5924611781, "lat": 19.1643661, "lon": 72.9405981}, {"type": "node", "id": 5924611782, "lat": 19.1642445, "lon": 72.940574}, {"type": "node", "id": 5924611783, "lat": 19.1641406, "lon": 72.9408717}, {"type": "node", "id": 6052834897, "lat": 19.1609468, "lon": 72.9448306, "tags": {"name:en": "Natures Basket", "shop": "supermarket"}}, {"type": "node", "id": 6220388885, "lat": 19.1105604, "lon": 72.866266, "tags": {"name:en": "Bon Bon", "shop": "supermarket"}}, {"type": "node", "id": 6231126283, "lat": 19.1639561, "lon": 72.9407927}, {"type": "node", "id": 6231139597, "lat": 19.1633368, "lon": 72.9404523, "tags": {"access": "private", "barrier": "gate"}}, {"type": "node", "id": 6231139599, "lat": 19.1641381, "lon": 72.9395038}, {"type": "node", "id": 6231139600, "lat": 19.1640241, "lon": 72.93989}, {"type": "node", "id": 6363934285, "lat": 19.1310929, "lon": 72.9269018, "tags": {"name:en": "D mart", "shop": "supermarket"}}, {"type": "node", "id": 6799612786, "lat": 19.1259558, "lon": 72.9177963, "tags": {"addr:postcode": "400076", "addr:street": "Apna Bazar", "name:en": "Apna Dukan", "shop": "supermarket"}}, {"type": "node", "id": 6801919204, "lat": 19.1269941, "lon": 72.9192913, "tags": {"name": "Pooja Grain store", "shop": "supermarket"}}, {"type": "node", "id": 6802123202, "lat": 19.127874, "lon": 72.9197148, "tags": {"name": "Jagdish Stores", "shop": "supermarket"}}, {"type": "node", "id": 6807300786, "lat": 19.1192921, "lon": 72.9115592, "tags": {"name:en": "Hiranandani Galleria", "shop": "supermarket"}}, {"type": "node", "id": 7147945060, "lat": 19.1323565, "lon": 72.9117339, "tags": {"name": "imk Bakery", "shop": "supermarket"}}, {"type": "node", "id": 7158055668, "lat": 19.1347798, "lon": 72.8250871, "tags": {"amenity": "pharmacy", "healthcare": "pharmacy", "name": "MG365", "opening_hours": "24/7", "shop": "supermarket", "wheelchair": "no"}}, {"type": "node", "id": 7320270232, "lat": 19.1008959, "lon": 72.8278252, "tags": {"addr:city": "Mumbai", "addr:postcode": "400049", "addr:street": "Khwaja Ahman Abbas Marg", "brand": "Nature's Basket", "brand:wikidata": "Q28174237", "brand:wikipedia": "en:Nature's Basket", "name": "Nature's Basket", "opening_hours": "Mo-Su 08:00-22:00", "organic": "yes", "shop": "supermarket", "website": "https://www.naturesbasket.co.in/"}}, {"type": "node", "id": 7425718020, "lat": 19.1458148, "lon": 72.8229554, "tags": {"name": "Society Stores Lokhandwala", "shop": "supermarket"}}, {"type": "node", "id": 7426184248, "lat": 19.1454282, "lon": 72.8292549, "tags": {"addr:city": "Mumbai", "addr:postcode": "400053", "addr:street": "Kavi Ram Basakhetre Road", "amenity": "ice_cream", "brand": "Nature's Basket", "brand:wikidata": "Q28174237", "name": "Nature's Basket", "organic": "yes", "shop": "supermarket"}}, {"type": "node", "id": 7624906702, "lat": 19.0379514, "lon": 72.9279957, "tags": {"addr:postcode": "400094", "air_conditioning": "yes", "name": "Anushaktingar Residents Consumer Cooperative Society (ARCCS)", "opening_hours": "Tu-Su 10:00-18:00", "operator": "ARCCS", "payment:cards": "yes", "payment:cash": "yes", "shop": "supermarket"}}, {"type": "node", "id": 7625146637, "lat": 19.0382331, "lon": 72.9260537}, {"type": "node", "id": 7625146638, "lat": 19.0380957, "lon": 72.9260414}, {"type": "node", "id": 7625146639, "lat": 19.0380869, "lon": 72.9261821}, {"type": "node", "id": 7625146640, "lat": 19.0382243, "lon": 72.9261913}, {"type": "node", "id": 7721120394, "lat": 19.1419763, "lon": 72.8394188}, {"type": "node", "id": 7721120395, "lat": 19.1419744, "lon": 72.8394859}, {"type": "node", "id": 7721120396, "lat": 19.1419514, "lon": 72.8394879}, {"type": "node", "id": 7721120397, "lat": 19.1419514, "lon": 72.8394168}, {"type": "node", "id": 7944293625, "lat": 19.1000576, "lon": 72.9178528, "tags": {"name": "Roman stores", "shop": "supermarket"}}, {"type": "node", "id": 7944294397, "lat": 19.1165789, "lon": 72.8871518, "tags": {"name": "grocery store", "shop": "supermarket"}}, {"type": "node", "id": 7944302261, "lat": 19.0549226, "lon": 72.9046335, "tags": {"addr:city": "Chembur, Mumbai", "addr:housenumber": "ground floor, Amul Appartments", "addr:postcode": "400071", "addr:street": "St. Anthony's Road", "name": "A.P.MANI AND SONS", "shop": "supermarket"}}, {"type": "node", "id": 7944398836, "lat": 19.1016687, "lon": 72.9112452, "tags": {"name": "general food store", "shop": "supermarket"}}, {"type": "node", "id": 7944524405, "lat": 19.1403349, "lon": 72.837543, "tags": {"name": "Aksar grocery shop", "shop": "supermarket"}}, {"type": "node", "id": 7944563278, "lat": 19.0874949, "lon": 72.8964888, "tags": {"name": "grocery store", "shop": "supermarket"}}, {"type": "node", "id": 7953949108, "lat": 19.0811794, "lon": 72.8560323, "tags": {"name": "Amin dry fruits store", "shop": "supermarket"}}, {"type": "node", "id": 8170851537, "lat": 19.1859626, "lon": 72.8356655, "tags": {"addr:postcode": "400064", "addr:street": "Link Road", "brand": "DMart", "brand:wikidata": "Q5203271", "name": "DMart", "name:en": "Dmart Malad West", "shop": "supermarket"}}, {"type": "node", "id": 8218238670, "lat": 19.159284, "lon": 72.8412611, "tags": {"addr:city": "Goregaon, Mumbai", "addr:housenumber": "234", "addr:postcode": "400104", "addr:street": "Road No. 17", "name": "misha supermarket", "opening_hours": "Mo-Su 09:00-21:00", "opening_hours:covid19": "Mo-Fr 08:00-12:00", "operator": "misha", "payment:cash": "yes", "payment:credit_cards": "yes", "phone": "74595266262033.025", "shop": "supermarket", "website": "https ronia sonia .com"}}, {"type": "node", "id": 8251738919, "lat": 19.0714599, "lon": 72.8387514, "tags": {"addr:postcode": "400052", "addr:street": "5th Road, SV raod", "name": "Rare Earth", "organic": "only", "shop": "supermarket"}}, {"type": "node", "id": 8349369743, "lat": 19.117245, "lon": 72.8830569}, {"type": "node", "id": 8349369744, "lat": 19.117285, "lon": 72.8830352}, {"type": "node", "id": 8349369745, "lat": 19.1172239, "lon": 72.8829094}, {"type": "node", "id": 8349369746, "lat": 19.1171839, "lon": 72.8829311}, {"type": "node", "id": 8401473560, "lat": 19.1959428, "lon": 72.8227717, "tags": {"addr:city": "Mumbai", "addr:postcode": "400095", "addr:street": "Malad Marve Road", "name": "STAR HOME  SUPERMARKET", "shop": "supermarket"}}, {"type": "node", "id": 8401473570, "lat": 19.1962726, "lon": 72.8260012, "tags": {"addr:street": "Malad Marve Road", "name": "JYOTI MATCHING CENTER", "shop": "supermarket"}}, {"type": "node", "id": 8447958683, "lat": 19.0798254, "lon": 72.8556587, "tags": {"addr:city": "Mumbai", "addr:postcode": "400055", "addr:street": "Jawaharlal Nehru Road", "name": "st charles", "opening_hours": "Mo-Su 09:00-21:00", "shop": "supermarket"}}, {"type": "node", "id": 8448187997, "lat": 19.1109759, "lon": 72.8975207}, {"type": "node", "id": 8448187998, "lat": 19.1110253, "lon": 72.8975744}, {"type": "node", "id": 8448187999, "lat": 19.1109797, "lon": 72.8977742}, {"type": "node", "id": 8448188000, "lat": 19.1108264, "lon": 72.8977661}, {"type": "node", "id": 8448188001, "lat": 19.110744, "lon": 72.8977567}, {"type": "node", "id": 8448188002, "lat": 19.1107668, "lon": 72.8975019}, {"type": "node", "id": 9021942517, "lat": 19.0493544, "lon": 72.9065813, "tags": {"name:en": "Ratna Departmental Store", "shop": "supermarket"}}, {"type": "node", "id": 9024157517, "lat": 19.0456054, "lon": 72.9029338, "tags": {"brand": "Nature's Basket", "brand:wikidata": "Q28174237", "name": "Nature's Basket", "name:en": "Nature's Basket", "shop": "supermarket"}}, {"type": "node", "id": 9122378286, "lat": 19.1330396, "lon": 72.8255466, "tags": {"amenity": "pharmacy", "description": "\"Pharmacy, Supermarket, Convenience\"", "healthcare": "pharmacy", "name": "Health & More", "opening_hours": "24/7", "shop": "supermarket"}}, {"type": "node", "id": 9132847880, "lat": 19.1277656, "lon": 72.8317585, "tags": {"amenity": "pharmacy", "healthcare": "pharmacy", "name": "Heath Guard Chemist and Supermarket", "opening_hours": "24/7", "shop": "supermarket", "wheelchair": "no"}}, {"type": "node", "id": 9132850194, "lat": 19.1279731, "lon": 72.8324148, "tags": {"name": "Apna Bazar", "shop": "supermarket"}}, {"type": "node", "id": 9391517229, "lat": 19.1956788, "lon": 72.8141928, "tags": {"addr:city": "Malad West", "addr:housenumber": "shop 1,2", "addr:postcode": "400095", "addr:street": "Malad Marve Road", "name": "Rathodi Society Store", "opening_hours": "Mo-Sa 08:00-18:00", "operator": "Devji Choudhary", "phone": "9833482048", "shop": "supermarket"}}, {"type": "node", "id": 9510095589, "lat": 19.1819372, "lon": 72.9463406, "tags": {"addr:city": "Mulund (West)", "addr:postcode": "400080", "addr:street": "Hill Breeze Road", "name": "haria supermarket", "shop": "supermarket"}}, {"type": "node", "id": 9887550804, "lat": 19.163755, "lon": 72.9401689, "tags": {"brand": "DMart", "brand:wikidata": "Q5203271", "name": "DMart", "shop": "supermarket"}}, {"type": "node", "id": 9887635358, "lat": 19.1691004, "lon": 72.9458753, "tags": {"name": "Ratna Supermakert", "shop": "supermarket"}}, {"type": "node", "id": 10132520069, "lat": 19.2375852, "lon": 72.8537867, "tags": {"name": "Milan Store", "shop": "supermarket"}}, {"type": "node", "id": 10170631383, "lat": 19.2434762, "lon": 72.8513323, "tags": {"name": "Sahakari Bhandar", "shop": "supermarket"}}, {"type": "node", "id": 10227697404, "lat": 19.0764242, "lon": 72.8345363, "tags": {"name": "Food Square", "name:en": "Food Square", "shop": "supermarket"}}, {"type": "node", "id": 10244097259, "lat": 19.2385854, "lon": 72.8549632, "tags": {"addr:city": "Mumbai", "addr:housenumber": "shop no.1", "addr:postcode": "400103", "addr:street": "Sardar Vallabhbhai Patel Road, nr ram mandir", "name": "Shakti super store", "opening_hours": "Mo-Su 07:00-22:00", "shop": "supermarket"}}, {"type": "node", "id": 10244127476, "lat": 19.2101162, "lon": 72.8676834, "tags": {"addr:city": "Mumbai", "addr:housenumber": "Avon Plaza", "addr:postcode": "400101", "addr:street": "Asha Nagar Road", "name": "Bhanu Medical", "opening_hours": "Mo-Su 08:00-23:00", "payment:cash": "yes", "payment:google_pay": "yes", "phone": "+919892858883", "shop": "supermarket"}}, {"type": "node", "id": 10246289348, "lat": 19.2182228, "lon": 72.8285601, "tags": {"addr:city": "Mumbai", "addr:postcode": "400067", "addr:street": "RDP Road No 5", "name": "Shiv SuperMart", "payment:app": "yes", "payment:cash": "yes", "payment:credit_cards": "yes", "payment:debit_cards": "yes", "payment:google_pay": "yes", "payment:paypal": "yes", "payment:unionpay": "yes", "payment:visa": "yes", "shop": "supermarket"}}, {"type": "node", "id": 10280126561, "lat": 19.173224, "lon": 72.9543681, "tags": {"name": "Oswal Supermarket", "shop": "supermarket"}}, {"type": "node", "id": 10303027466, "lat": 19.1680182, "lon": 72.9517454, "tags": {"addr:city": "Mulund (West)", "addr:postcode": "400080", "addr:street": "Pandit Jawaharlal Nehru Road", "name": "Apna Bazar", "organic": "yes", "payment:credit_cards": "yes", "payment:debit_cards": "yes", "shop": "supermarket"}}, {"type": "node", "id": 10811219256, "lat": 19.0816714, "lon": 72.8460061}, {"type": "node", "id": 10811219257, "lat": 19.081677, "lon": 72.8460981}, {"type": "node", "id": 10811219258, "lat": 19.0814954, "lon": 72.8461228}, {"type": "node", "id": 10811219259, "lat": 19.0814898, "lon": 72.846104}, {"type": "node", "id": 10811219260, "lat": 19.0814553, "lon": 72.8461051}, {"type": "node", "id": 10811219261, "lat": 19.0814431, "lon": 72.8460215}, {"type": "node", "id": 10929744306, "lat": 19.1136158, "lon": 72.8477938, "tags": {"name:en": "D-Mart", "shop": "supermarket"}}, {"type": "node", "id": 11057110863, "lat": 19.1453374, "lon": 72.8295085, "tags": {"addr:city": "Andheri (W), Mumbai", "addr:housenumber": "501/502", "addr:postcode": "400102", "addr:street": "Off Link Road, Adarsh Nagar", "name": "Nuts N More", "shop": "supermarket"}}, {"type": "node", "id": 11100706440, "lat": 19.0374086, "lon": 72.9323185, "tags": {"shop": "supermarket"}}, {"type": "node", "id": 11217402649, "lat": 19.0936354, "lon": 72.8838547, "tags": {"addr:city": "Mumabi", "addr:district": "maharastara", "addr:housenumber": "jarimari", "addr:postcode": "400072", "addr:street": "90 Feet Road", "name": "thethar", "opening_hours": "Mo-Su 09:00-21:00", "payment:cash": "yes", "payment:credit_cards": "yes", "phone": "8591199151", "shop": "supermarket"}}, {"type": "node", "id": 11230941355, "lat": 19.0373593, "lon": 72.9324021, "tags": {"name": "Shetty's Corner", "shop": "supermarket"}}, {"type": "node", "id": 11276393339, "lat": 19.1800492, "lon": 72.9586923, "tags": {"addr:street": "ACC Road", "description": "provide ac repairing service and cooler", "name": "AC repair shop", "operator": "dcafd", "shop": "supermarket"}}, {"type": "node", "id": 11276416801, "lat": 19.1801044, "lon": 72.9586426, "tags": {"description": "provide ac repiar serivce to ac and cooler", "name": "Ac repair shop", "shop": "supermarket"}}, {"type": "node", "id": 11400865995, "lat": 19.081222, "lon": 72.8923176, "tags": {"brand": "DMart", "brand:wikidata": "Q5203271", "name": "DMart", "shop": "supermarket"}}, {"type": "node", "id": 11451515800, "lat": 19.0950201, "lon": 72.8836496, "tags": {"name": "Reliance Smart", "shop": "supermarket"}}, {"type": "node", "id": 11451995918, "lat": 19.0842678, "lon": 72.8848036, "tags": {"addr:district": "Mumbai", "addr:postcode": "400070", "addr:suburb": "Mumbai suburb", "brand": "7-Eleven", "name": "7-Eleven", "opening_hours": "Mo-Su 7:00-23:00", "shop": "supermarket"}}, {"type": "node", "id": 11579725641, "lat": 19.0569925, "lon": 72.88988, "tags": {"name": "Kute General Store", "shop": "supermarket"}}, {"type": "node", "id": 11591072336, "lat": 19.0995522, "lon": 72.8457581, "tags": {"name": "HEERSON", "opening_hours": "Mo-Su 09:00-22:05", "payment:american_express": "yes", "payment:app": "yes", "payment:cash": "yes", "payment:credit_cards": "yes", "payment:diners_club": "yes", "shop": "supermarket"}}, {"type": "node", "id": 11613055041, "lat": 19.2089609, "lon": 72.8640629, "tags": {"addr:city": "Mumbai", "addr:district": "Mumbai", "addr:housenumber": "4A shop no.33", "addr:postcode": "400101", "addr:street": "mahatma jotibai phule road", "name": "society center", "opening_hours": "Mo-Su 09:00-19:00", "payment:cash": "yes", "payment:credit_cards": "yes", "payment:google_pay": "yes", "shop": "supermarket"}}, {"type": "node", "id": 11697857176, "lat": 19.1167001, "lon": 72.9103497, "tags": {"brand": "DMart", "brand:wikidata": "Q5203271", "name": "DMart", "shop": "supermarket"}}, {"type": "node", "id": 11716428226, "lat": 19.0404538, "lon": 72.9184227, "tags": {"name": "Aasaan stores", "shop": "supermarket"}}, {"type": "node", "id": 11716428237, "lat": 19.0393647, "lon": 72.9117787, "tags": {"name": "St. Thomas Stores", "shop": "supermarket"}}, {"type": "node", "id": 11716428250, "lat": 19.0375722, "lon": 72.9095705, "tags": {"name": "Apna Kirana Store", "shop": "supermarket"}}, {"type": "node", "id": 11716428251, "lat": 19.0371982, "lon": 72.9094392, "tags": {"name": "Dilip Kirana Stores", "shop": "supermarket"}}, {"type": "node", "id": 11716428252, "lat": 19.0375045, "lon": 72.909417, "tags": {"shop": "supermarket"}}, {"type": "node", "id": 11716428259, "lat": 19.0374877, "lon": 72.911769, "tags": {"name": "Raj depot", "shop": "supermarket"}}, {"type": "node", "id": 11962654785, "lat": 19.0765454, "lon": 72.8802586, "tags": {"addr:city": "Mumbai", "addr:district": "Mumbai Suburban", "addr:housenumber": "250", "addr:postcode": "400070", "addr:street": "MEHBOOB E SUBHANI MASJID, 250 BHALEKAR WADI, New Mill Rd, beside MADINA HOTEL, Kurla West,", "name": "Kohinoor Enterprises", "opening_hours": "Mo-Su 07:00-22:00", "operator": "Kohinoor Enterprises", "payment:cash": "yes", "payment:credit_cards": "yes", "payment:debit_cards": "yes", "payment:mastercard": "yes", "payment:visa": "yes", "phone": "07860404303", "shop": "supermarket"}}, {"type": "node", "id": 12192784839, "lat": 19.0626852, "lon": 72.8306355, "tags": {"name": "The Urban Platter Store", "name:en": "The Urban Platter Store", "name:hi": "\u0926 \u0905\u0930\u094d\u092c\u0928 \u092a\u094d\u0932\u0948\u091f\u0930 \u0938\u094d\u091f\u094b\u0930", "name:mr": "\u0926 \u0905\u0930\u094d\u092c\u0928 \u092a\u094d\u0932\u0945\u091f\u0930 \u0938\u094d\u091f\u094b\u0930", "shop": "supermarket"}}, {"type": "node", "id": 12290032454, "lat": 19.1453499, "lon": 72.8467616, "tags": {"check_date": "2024-10-26", "name": "National", "shop": "supermarket"}}, {"type": "node", "id": 12308967212, "lat": 19.1083775, "lon": 72.8394754}, {"type": "node", "id": 12308967213, "lat": 19.1082722, "lon": 72.8394688}, {"type": "node", "id": 12308967214, "lat": 19.1082799, "lon": 72.8393299}, {"type": "node", "id": 12308967215, "lat": 19.1083853, "lon": 72.8393364}, {"type": "node", "id": 12317765789, "lat": 19.129794, "lon": 72.8253396}, {"type": "node", "id": 12317765899, "lat": 19.1297624, "lon": 72.8255133}, {"type": "node", "id": 12317766079, "lat": 19.1296107, "lon": 72.8254791}, {"type": "node", "id": 12317766092, "lat": 19.1295969, "lon": 72.8254648}, {"type": "node", "id": 12317766105, "lat": 19.129735, "lon": 72.8252051}, {"type": "node", "id": 12317766108, "lat": 19.1298156, "lon": 72.8252216}, {"type": "node", "id": 12348270652, "lat": 19.0931508, "lon": 72.9203357}, {"type": "node", "id": 12348270653, "lat": 19.0930947, "lon": 72.9204024}, {"type": "node", "id": 12348270654, "lat": 19.0930481, "lon": 72.9203531}, {"type": "node", "id": 12348270655, "lat": 19.0931004, "lon": 72.9202867}, {"type": "node", "id": 12381958980, "lat": 19.2289099, "lon": 72.8251428, "tags": {"addr:city": "Mumbai", "addr:district": "Maharashtra", "addr:housenumber": "456", "addr:postcode": "400092", "addr:street": "gorai kahdi", "name": "anand shop", "opening_hours": "Mo-Su 09:00-23:00", "operator": "grocery", "organic": "yes", "payment:cards": "yes", "payment:cash": "yes", "shop": "supermarket"}}, {"type": "node", "id": 12381958981, "lat": 19.2289174, "lon": 72.825141, "tags": {"addr:city": "Mumbai", "addr:district": "Maharashtra", "addr:housenumber": "456", "addr:postcode": "400092", "addr:street": "Gorai kahdi", "name": "Anand", "opening_hours": "Mo-Su 09:00-23:00", "payment:cards": "yes", "payment:cash": "yes", "shop": "supermarket"}}, {"type": "node", "id": 12477833891, "lat": 19.1728904, "lon": 72.8553686, "tags": {"addr:city": "Mumbai", "addr:district": "Goregaon", "addr:housenumber": "901,B-wing", "addr:postcode": "400063", "addr:street": "LOTUS CORPORATE PARK, gram firth steel compound", "brand": "Albino Lifestyle", "name": "Albino Lifestyle", "opening_hours": "24/7", "operator": "Albino Lifestyle", "phone": "+918108037000", "shop": "supermarket", "website": "https://albinolifestyle.com/"}}, {"type": "node", "id": 12504150991, "lat": 19.0524551, "lon": 72.82431}, {"type": "node", "id": 12504150992, "lat": 19.0524359, "lon": 72.824312}, {"type": "node", "id": 12504150993, "lat": 19.0524342, "lon": 72.8242937}, {"type": "node", "id": 12504150994, "lat": 19.0524511, "lon": 72.824292}, {"type": "node", "id": 12600517519, "lat": 19.0603186, "lon": 72.8499975, "tags": {"name": "Meena Bazar", "shop": "supermarket"}}, {"type": "node", "id": 12843082708, "lat": 19.084711, "lon": 72.8347972, "tags": {"brand": "Nature's Basket", "brand:wikidata": "Q28174237", "level": "3", "name": "Nature's Basket", "shop": "supermarket"}}, {"type": "node", "id": 12848913147, "lat": 19.1059803, "lon": 72.8263775, "tags": {"level": "0", "name": "Intop", "name:en": "Intop", "name:hi": "\u0907\u0928\u091f\u0949\u092a", "name:mr": "\u0907\u0928\u091f\u0949\u092a", "shop": "supermarket"}}, {"type": "node", "id": 12862551934, "lat": 19.2211426, "lon": 72.8375818, "tags": {"brand": "Star Bazaar", "brand:wikidata": "Q124175958", "name": "Star Bazaar", "shop": "supermarket"}}, {"type": "node", "id": 12921345552, "lat": 19.0600078, "lon": 72.8425391, "tags": {"name": "Mahaveer Supermarket", "shop": "supermarket"}}, {"type": "node", "id": 12960843831, "lat": 19.1118525, "lon": 72.8751802, "tags": {"brand": "DMart", "brand:wikidata": "Q5203271", "name": "DMart", "shop": "supermarket"}}, {"type": "way", "id": 204884865, "nodes": [2148659208, 2148659193, 2148659216, 12317766092, 12317766079, 2148659204, 12317765899, 12317765789, 12317766108, 12317766105, 2148659199, 2148659208], "tags": {"addr:housename": "Kamdhenu", "addr:postcode": "400053", "addr:street": "Four Bungalows, Versova, Andheri West", "building": "retail", "building:levels": "3", "name": "Kamdhenu", "roof:shape": "flat", "shop": "supermarket"}}, {"type": "way", "id": 352975397, "nodes": [3587627226, 3587627230, 3587627217, 3587627216, 3587627226], "tags": {"addr:city": "Mumbai", "addr:housenumber": "Shop No - 20", "addr:postcode": "400064", "addr:street": "Evershine Nagar, Malad West", "air_conditioning": "yes", "building": "yes", "description": "Yash Mart is a newly opened super mart in Evershine Nagar.", "name": "Yash Mart", "opening_hours": "Mo-Su 08:00-22:00", "payment:cash": "yes", "payment:credit_cards": "yes", "phone": "+91 87799 88156", "shop": "supermarket", "website": "https://yash-mart.business.site/"}}, {"type": "way", "id": 353198983, "nodes": [3589670797, 3589670812, 3589670811, 3589670795, 3589670797], "tags": {"addr:city": "Mumbai", "building": "yes", "name": "Sahakari Bhandar", "operator": "Sahakari Bhandar", "shop": "supermarket"}}, {"type": "way", "id": 356284931, "nodes": [3617444120, 3617444124, 12504150994, 12504150993, 12504150992, 12504150991, 3617444125, 3617444122, 3617444120], "tags": {"addr:city": "Mumbai", "addr:housenumber": "100A", "addr:postcode": "400050", "addr:street": "Hill Road", "building": "yes", "name": "Patel Provision Stores", "payment:cash": "yes", "payment:coins": "yes", "payment:contactless": "yes", "payment:credit_cards": "yes", "payment:girocard": "yes", "payment:maestro": "yes", "payment:visa": "yes", "phone": "+91 022 2640 3517", "shop": "supermarket"}}, {"type": "way", "id": 627613005, "nodes": [1856751396, 6231126283, 5924611783, 5924611782, 5924611781, 5924611780, 6231139600, 6231139599, 5924611779, 6231139597, 1856751396], "tags": {"brand": "DMart", "brand:wikidata": "Q5203271", "landuse": "retail", "name": "DMart", "shop": "supermarket"}}, {"type": "way", "id": 816431596, "nodes": [7625146637, 7625146638, 7625146639, 7625146640, 7625146637], "tags": {"building": "retail", "name": "MAFCO", "shop": "supermarket"}}, {"type": "way", "id": 827023262, "nodes": [7721120394, 7721120395, 7721120396, 7721120397, 7721120394], "tags": {"addr:city": "Mumbai", "addr:housenumber": "Foodin Mart,Basera Apartment", "addr:postcode": "400102", "addr:street": "Aqsa Masjid Road, Jogeshwari west", "building": "retail", "name": "Foodin Mart", "opening_hours": "Mo-Su 10:00-22:00", "payment:cash": "yes", "payment:credit_cards": "yes", "payment:debit_cards": "yes", "shop": "supermarket"}}, {"type": "way", "id": 898489010, "nodes": [8349369746, 8349369745, 8349369744, 8349369743, 8349369746], "tags": {"building": "supermarket", "name": "Poorti Supermarket", "shop": "supermarket", "source": "https://magicpin.in/Mumbai/Marol/Grocery/Poorti-Supermarket/store/12235b;https://www.justdial.com/Mumbai/Poorti-Super-Market-Opposite-Richard-Garage-Andheri-E"}}, {"type": "way", "id": 909875100, "nodes": [8448187997, 8448187998, 8448187999, 8448188000, 8448188001, 8448188002, 8448187997], "tags": {"brand": "DMart", "brand:wikidata": "Q5203271", "building": "yes", "name": "DMart", "shop": "supermarket"}}, {"type": "way", "id": 1162458608, "nodes": [10811219256, 10811219257, 10811219258, 10811219259, 10811219260, 10811219261, 10811219256], "tags": {"building": "yes", "name": "Smart Buy", "shop": "supermarket"}}, {"type": "way", "id": 1330349899, "nodes": [12308967212, 12308967213, 12308967214, 12308967215, 12308967212], "tags": {"building": "yes", "name": "Alfa 1", "name:en": "Alfa 1", "shop": "supermarket"}}, {"type": "way", "id": 1334755912, "nodes": [12348270652, 12348270653, 12348270654, 12348270655, 12348270652], "tags": {"building": "yes", "name": "Adrish Zero Waste", "organic": "only", "shop": "supermarket"}}]}