{"version": 0.6, "generator": "Overpass API 0.7.62.8 e802775f", "osm3s": {"timestamp_osm_base": "2025-08-25T19:34:02Z", "copyright": "The data included in this document is from www.openstreetmap.org. The data is made available under ODbL."}, "elements": [{"type": "node", "id": 347145086, "lat": 19.0508641, "lon": 72.8275315, "tags": {"addr:city": "Mumbai", "addr:postcode": "400050", "addr:street": "Chapel Road", "amenity": "pharmacy", "dispensing": "yes", "healthcare": "pharmacy", "name": "Al Medica"}}, {"type": "node", "id": 348136779, "lat": 19.0520576, "lon": 72.8238839, "tags": {"addr:city": "Mumbai", "addr:postcode": "400050", "addr:street": "M Kahn Chowk", "amenity": "pharmacy", "healthcare": "pharmacy", "name": "Noble Plus", "opening_hours": "24/7"}}, {"type": "node", "id": 814449102, "lat": 19.2351808, "lon": 72.8444146, "tags": {"amenity": "pharmacy"}}, {"type": "node", "id": 814449103, "lat": 19.2351808, "lon": 72.8425049, "tags": {"amenity": "pharmacy"}}, {"type": "node", "id": 1345329196, "lat": 19.1115752, "lon": 72.8499451, "tags": {"amenity": "pharmacy", "healthcare": "pharmacy", "name": "Shastri Medical"}}, {"type": "node", "id": 1347495359, "lat": 19.1877248, "lon": 72.8458455, "tags": {"amenity": "pharmacy", "dispensing": "no", "name": "Lifescan Imaging Centre"}}, {"type": "node", "id": 1396840968, "lat": 19.044174, "lon": 72.9294714, "tags": {"amenity": "pharmacy", "healthcare": "pharmacy", "name": "Sai Medical Stores", "opening_hours": "Mo-Sa 08:00-21:00"}}, {"type": "node", "id": 1416495854, "lat": 19.2151843, "lon": 72.8286964, "tags": {"amenity": "pharmacy", "dispensing": "no", "name": "Nobel Chemist", "opening_hours": "24/7"}}, {"type": "node", "id": 1575092121, "lat": 19.1030147, "lon": 72.8453313, "tags": {"addr:housename": "Vireshwar Jyot", "addr:postcode": "400057", "addr:street": "Hanuman Road", "amenity": "pharmacy", "healthcare": "pharmacy", "name": "Superdoc Medical"}}, {"type": "node", "id": 1579171646, "lat": 19.1035624, "lon": 72.8508736, "tags": {"addr:housename": "Suvas", "addr:postcode": "400057", "addr:street": "Hanuman Road", "amenity": "pharmacy", "healthcare": "pharmacy", "name": "Atul Aurvedic"}}, {"type": "node", "id": 1579205132, "lat": 19.1035319, "lon": 72.8510229, "tags": {"addr:housename": "Pandurang Sadan", "addr:postcode": "400057", "addr:street": "Hanuman Road", "amenity": "pharmacy", "healthcare": "pharmacy", "name": "Parle Provision"}}, {"type": "node", "id": 1579238378, "lat": 19.1036357, "lon": 72.8518597, "tags": {"addr:housename": "Samadhan Sadan", "addr:postcode": "400057", "addr:street": "Hanuman Road", "amenity": "pharmacy", "healthcare": "pharmacy", "name": "Suman"}}, {"type": "node", "id": 2018031052, "lat": 19.0704127, "lon": 72.8964441, "tags": {"amenity": "pharmacy", "name": "Noble Medicals"}}, {"type": "node", "id": 2125146888, "lat": 19.1428701, "lon": 72.82908, "tags": {"addr:housename": "Twinkle Apartments", "amenity": "pharmacy", "healthcare": "pharmacy", "name": "Sanu Medical"}}, {"type": "node", "id": 2125326733, "lat": 19.1249844, "lon": 72.8225269, "tags": {"amenity": "pharmacy", "name": "Real Chemist"}}, {"type": "node", "id": 2131117090, "lat": 19.1175874, "lon": 72.8292383, "tags": {"amenity": "pharmacy", "healthcare": "pharmacy", "name": "Mohan Medicine", "name:en": "Mohan Medicine", "opening_hours": "24/7"}}, {"type": "node", "id": 2148667444, "lat": 19.129843, "lon": 72.8222405, "tags": {"addr:housename": "Evershine Apartments", "addr:housenumber": "Shop No 15", "addr:postcode": "400058", "addr:street": "Four Bungalows, Opposite Bon Bon, JP Road, Andheri West", "amenity": "pharmacy", "name": "Mohan Medical", "opening_hours": "24/7"}}, {"type": "node", "id": 2171447195, "lat": 19.0627103, "lon": 72.8292247, "tags": {"addr:city": "Bandra, Mumbai", "addr:housename": "Dhiraj Pali Arcade", "addr:postcode": "400050", "addr:street": "Dr B.R Ambedkar Road, Bandra West", "amenity": "pharmacy", "healthcare": "pharmacy", "name": "Solanki Medical Shop"}}, {"type": "node", "id": 2181493233, "lat": 19.1351976, "lon": 72.8224038, "tags": {"amenity": "pharmacy", "name": "Ambika Medicals"}}, {"type": "node", "id": 2238620217, "lat": 19.0610835, "lon": 72.9004589, "tags": {"amenity": "pharmacy", "dispensing": "no", "name": "Balaji Medicals"}}, {"type": "node", "id": 2851477528, "lat": 19.0497286, "lon": 72.8263437, "tags": {"amenity": "pharmacy", "healthcare": "pharmacy", "name": "Mount Medical Store"}}, {"type": "node", "id": 2932969879, "lat": 19.0625309, "lon": 72.9001192, "tags": {"addr:street": "Chembur Station Road", "amenity": "pharmacy", "name": "Anu Medicals"}}, {"type": "node", "id": 3184787971, "lat": 19.1302443, "lon": 72.818179, "tags": {"amenity": "pharmacy", "name": "Rohan Chemist"}}, {"type": "node", "id": 3207595705, "lat": 19.0602501, "lon": 72.8434084, "tags": {"amenity": "pharmacy", "healthcare": "pharmacy"}}, {"type": "node", "id": 3207595735, "lat": 19.0603756, "lon": 72.8431935, "tags": {"amenity": "pharmacy", "healthcare": "pharmacy"}}, {"type": "node", "id": 3207595917, "lat": 19.0601293, "lon": 72.8434128, "tags": {"amenity": "pharmacy", "healthcare": "pharmacy", "name": "SuperDoc Medical Store"}}, {"type": "node", "id": 3207680688, "lat": 19.0614075, "lon": 72.8438372, "tags": {"amenity": "pharmacy", "healthcare": "pharmacy", "name": "Gajanand Pharmacy"}}, {"type": "node", "id": 3224692246, "lat": 19.1701579, "lon": 72.9590168, "tags": {"addr:city": "Mulund (East)", "addr:street": "Lokmanya Tilak Road", "amenity": "pharmacy", "name": "Ambaji Medical Store"}}, {"type": "node", "id": 3289519861, "lat": 19.0813056, "lon": 72.8829461, "tags": {"addr:postcode": "400070", "amenity": "pharmacy", "healthcare": "pharmacy", "name": "Ritesh Medical", "opening_hours": "09:00-22:00"}}, {"type": "node", "id": 3289526261, "lat": 19.0811499, "lon": 72.881926, "tags": {"addr:city": "Mumbai", "addr:postcode": "400070", "addr:street": "father peter periera road", "amenity": "pharmacy", "name": "City Medical Centre", "opening_hours": "24/7", "operator": "City hospital"}}, {"type": "node", "id": 3289562513, "lat": 19.0772902, "lon": 72.8833834, "tags": {"amenity": "pharmacy", "opening_hours": "09:00-22:00"}}, {"type": "node", "id": 3523190675, "lat": 19.1284558, "lon": 72.8211578, "tags": {"amenity": "pharmacy", "name": "Sriram Pharmacy"}}, {"type": "node", "id": 3981603676, "lat": 19.150249, "lon": 72.8313547, "tags": {"amenity": "pharmacy", "healthcare": "pharmacy", "name": "Mohan Medicare"}}, {"type": "node", "id": 4051423096, "lat": 19.1287836, "lon": 72.8214427, "tags": {"amenity": "pharmacy", "name": "Mohan Mediico"}}, {"type": "node", "id": 4127946599, "lat": 19.2101427, "lon": 72.873974, "tags": {"amenity": "pharmacy", "name": "Apollo"}}, {"type": "node", "id": 4152604762, "lat": 19.1386001, "lon": 72.8147987, "tags": {"addr:city": "Mumbai", "addr:housename": "Panchsheel", "addr:housenumber": "1", "addr:postcode": "400061", "addr:street": "Off Yari Road", "amenity": "pharmacy", "name": "Lifeline", "phone": "+912226378686"}}, {"type": "node", "id": 4159114359, "lat": 19.0874978, "lon": 72.8346602, "tags": {"amenity": "pharmacy", "name": "Deepak Medicals"}}, {"type": "node", "id": 4312874896, "lat": 19.0578593, "lon": 72.8337999, "tags": {"amenity": "pharmacy", "dispensing": "yes", "healthcare": "pharmacy", "name": "Metro Medicals"}}, {"type": "node", "id": 4312909188, "lat": 19.0554863, "lon": 72.8315254, "tags": {"amenity": "pharmacy", "dispensing": "yes", "healthcare": "pharmacy", "name": "Bandra Medical Stores", "name:en": "Bandra Medical Stores"}}, {"type": "node", "id": 4345578517, "lat": 19.0554912, "lon": 72.8355975, "tags": {"addr:city": "Bandra, Mumbai", "addr:postcode": "400050", "addr:street": "Ramdas Naik Road", "amenity": "pharmacy", "healthcare": "pharmacy", "name": "Shifa Plus Medical and General Store"}}, {"type": "node", "id": 4373086604, "lat": 19.0758859, "lon": 72.9115589, "tags": {"addr:postcode": "400077", "amenity": "pharmacy", "name:en": "bhavin medical stores", "opening_hours": "Mo-Su 10:30-23:00"}}, {"type": "node", "id": 4406061290, "lat": 19.1211552, "lon": 72.9172853, "tags": {"addr:postcode": "40076", "addr:street": "Powai Road", "amenity": "pharmacy", "name:en": "Jhonson Medical", "opening_hours": "Mo-Su 10:00-22:30"}}, {"type": "node", "id": 4577067890, "lat": 19.1166725, "lon": 72.9097223, "tags": {"addr:city": "Mumbai", "addr:district": "Powai", "addr:housenumber": "7", "addr:postcode": "400076", "addr:street": "Central Avenue", "amenity": "pharmacy", "brand": "Wellness Forever", "brand:wikidata": "Q123114721", "healthcare": "pharmacy", "name": "Wellness Forever", "name:en": "Wellness Forever", "opening_hours": "24/7", "phone": "022 6162 0659", "website": "https://wellnessforever.in"}}, {"type": "node", "id": 4658681089, "lat": 19.1698068, "lon": 72.9597163, "tags": {"addr:postcode": "400081", "addr:street": "GV Scheme Road 4", "amenity": "pharmacy", "healthcare": "pharmacy"}}, {"type": "node", "id": 5047722121, "lat": 19.1680429, "lon": 72.9614413, "tags": {"addr:postcode": "400081", "addr:street": "Navghar Marg", "amenity": "pharmacy", "name:en": "Ambaji Medical 24*7"}}, {"type": "node", "id": 5245907849, "lat": 19.0515512, "lon": 72.8283501, "tags": {"addr:city": "Mumbai", "addr:postcode": "400050", "addr:street": "Chapel Road", "amenity": "pharmacy", "healthcare": "pharmacy", "name": "Mamta Medical and General Store", "phone": "02269940010"}}, {"type": "node", "id": 5273193977, "lat": 19.0578665, "lon": 72.8298116, "tags": {"addr:city": "Mumbai", "addr:postcode": "400050", "addr:street": "Manuel Gonsalves Road", "addr:unit": "1", "amenity": "pharmacy", "drive_through": "no", "email": "info@nobleplus.in", "healthcare": "pharmacy", "name": "Noble Plus Pharmacy", "opening_hours": "24/7", "phone": "022 2643 1129", "phone_1": "022 2643 1130", "website": "https://nobleplus.in/"}}, {"type": "node", "id": 5277432568, "lat": 19.0631071, "lon": 72.8247559, "tags": {"addr:city": "Mumbai", "addr:housenumber": "7", "addr:postcode": "400050", "addr:street": "Pali Mala Road", "addr:suburb": "Bandra West", "addr:unit": "Sefa House, A Wing", "amenity": "pharmacy", "drive_through": "no", "healthcare": "pharmacy", "name": "Gems Medical and General Store", "phone": "+91 98190 85930"}}, {"type": "node", "id": 6795453789, "lat": 19.1153837, "lon": 72.908029, "tags": {"addr:housenumber": "10, Cypress CHS", "addr:postcode": "400076", "addr:street": "Central Avenue", "amenity": "pharmacy", "name:en": "Life Panacea", "opening_hours": "Mo-Su 09:00-23:00"}}, {"type": "node", "id": 6795551887, "lat": 19.1151144, "lon": 72.907089, "tags": {"addr:street": "Central Avenue - from Tulip to Forest Street Junction", "amenity": "pharmacy", "name:en": "Ashwin MEDICAL and General stores", "opening_hours": "Mo-Su 09:00-23:00"}}, {"type": "node", "id": 6796939976, "lat": 19.1192134, "lon": 72.9115491, "tags": {"amenity": "pharmacy", "healthcare": "pharmacy", "name": "Mamaji's Medical Store", "shop": "medical_supply"}}, {"type": "node", "id": 6799615085, "lat": 19.1257637, "lon": 72.9177994, "tags": {"addr:postcode": "400076", "addr:street": "Apna Bazar", "amenity": "pharmacy", "name:en": "Vaibhav Pharmacy"}}, {"type": "node", "id": 6801919196, "lat": 19.1257238, "lon": 72.9194583, "tags": {"amenity": "pharmacy", "name": "Sagar Medical store"}}, {"type": "node", "id": 6802082694, "lat": 19.1177464, "lon": 72.9050418, "tags": {"amenity": "pharmacy", "description": "Pharmacy, Chemist and Skin Care 24x7", "healthcare": "pharmacy", "name": "Noble Plus"}}, {"type": "node", "id": 6804290505, "lat": 19.1267112, "lon": 72.9187525, "tags": {"amenity": "pharmacy", "description": "medical store", "dispensing": "yes", "healthcare": "pharmacy", "name": "unique homoeo pharmacy"}}, {"type": "node", "id": 6805446087, "lat": 19.115253, "lon": 72.9080263, "tags": {"amenity": "pharmacy", "name:en": "Life Panacea"}}, {"type": "node", "id": 6805465785, "lat": 19.1154248, "lon": 72.9080115, "tags": {"amenity": "pharmacy", "name:en": "Ambaji Medicals"}}, {"type": "node", "id": 6805481585, "lat": 19.11506, "lon": 72.9070198, "tags": {"amenity": "pharmacy", "name:en": "Ashwin Medical and General Stores"}}, {"type": "node", "id": 6805962686, "lat": 19.1178201, "lon": 72.9049924, "tags": {"amenity": "pharmacy", "healthcare": "pharmacy", "name:en": "Noble Plus"}}, {"type": "node", "id": 6924350186, "lat": 19.1270859, "lon": 72.9187604, "tags": {"addr:postcode": "400076", "addr:street": "Adi Sankaracharya Marg", "amenity": "pharmacy", "name:en": "Shree Ganesh Medical and General"}}, {"type": "node", "id": 6924363986, "lat": 19.1268364, "lon": 72.9185152, "tags": {"addr:postcode": "400076", "addr:street": "Adi Sankaracharya Marg", "amenity": "pharmacy", "name:en": "Ojas Medical and General store"}}, {"type": "node", "id": 7158055668, "lat": 19.1347798, "lon": 72.8250871, "tags": {"amenity": "pharmacy", "healthcare": "pharmacy", "name": "MG365", "opening_hours": "24/7", "shop": "supermarket", "wheelchair": "no"}}, {"type": "node", "id": 7291623685, "lat": 19.1715919, "lon": 72.957294, "tags": {"amenity": "pharmacy", "name:en": "Liberty"}}, {"type": "node", "id": 7426184230, "lat": 19.142767, "lon": 72.8246037, "tags": {"addr:city": "Mumbai", "addr:housename": "Sun Swept Building", "addr:place": "Lokhandwala Complex", "addr:postcode": "400053", "addr:suburb": "Andheri (West)", "addr:unit": "19", "amenity": "pharmacy", "healthcare": "pharmacy", "level": "0", "name": "Wellness Forever", "wheelchair": "no"}}, {"type": "node", "id": 8407343895, "lat": 19.0418012, "lon": 72.9202258, "tags": {"amenity": "pharmacy", "dispensing": "yes", "healthcare": "pharmacy", "name": "Shakari Bhandar Pharmacy"}}, {"type": "node", "id": 8839436974, "lat": 19.1384373, "lon": 72.8144758, "tags": {"amenity": "pharmacy", "healthcare": "pharmacy", "name": "Lifeline Chemist"}}, {"type": "node", "id": 9080857999, "lat": 19.1410653, "lon": 72.8273217, "tags": {"addr:city": "Mumbai", "addr:housenumber": "Ground Floor, Clanfield Society", "addr:postcode": "400053", "addr:street": "Ashok Academy Lane", "amenity": "pharmacy", "brand": "Noble Plus Medical Store Chain", "dispensing": "no", "drive_through": "no", "healthcare": "pharmacy", "name": "Noble Plus Medicals Store", "opening_hours": "24/7", "phone": "+912226324253", "website": "https://nobleplus.in/"}}, {"type": "node", "id": 9118087846, "lat": 19.1280617, "lon": 72.8256931, "tags": {"amenity": "pharmacy", "check_date": "2024-09-24", "healthcare": "pharmacy", "name": "Mohan Medicure", "opening_hours": "24/7"}}, {"type": "node", "id": 9118087862, "lat": 19.1283598, "lon": 72.8257641, "tags": {"amenity": "pharmacy", "brand": "Wellness Forever", "brand:wikidata": "Q123114721", "contact:phone": "+91-22-2639-9201;+91-22-2639-9202", "delivery": "yes", "healthcare": "pharmacy", "name": "Wellness Forever", "opening_hours": "24/7"}}, {"type": "node", "id": 9122378286, "lat": 19.1330396, "lon": 72.8255466, "tags": {"amenity": "pharmacy", "description": "\"Pharmacy, Supermarket, Convenience\"", "healthcare": "pharmacy", "name": "Health & More", "opening_hours": "24/7", "shop": "supermarket"}}, {"type": "node", "id": 9132764341, "lat": 19.1430376, "lon": 72.8315439, "tags": {"amenity": "pharmacy", "healthcare": "pharmacy", "name": "Shri Balaji Medical and General Store"}}, {"type": "node", "id": 9132847880, "lat": 19.1277656, "lon": 72.8317585, "tags": {"amenity": "pharmacy", "healthcare": "pharmacy", "name": "Heath Guard Chemist and Supermarket", "opening_hours": "24/7", "shop": "supermarket", "wheelchair": "no"}}, {"type": "node", "id": 9132857974, "lat": 19.1286395, "lon": 72.8279762, "tags": {"amenity": "pharmacy", "healthcare": "pharmacy", "name": "24x7 Chemist and General Store", "opening_hours": "24/7", "shop": "general"}}, {"type": "node", "id": 9139640438, "lat": 19.1367428, "lon": 72.8218501, "tags": {"amenity": "pharmacy", "contact:phone": "+91-88798-22360;+91-89287-76632", "healthcare": "pharmacy", "name": "Mohini Medical Store"}}, {"type": "node", "id": 9405136895, "lat": 19.0551444, "lon": 72.8266558, "tags": {"amenity": "pharmacy", "dispensing": "yes", "drive_through": "no", "healthcare": "pharmacy", "name": "Shree Ganesh Medical & General Stores", "name:en": "Shree Ganesh Medical & General Stores", "name:mr": "\u0936\u094d\u0930\u0940 \u0917\u0923\u0947\u0936 \u092e\u0947\u0921\u093f\u0915\u0932 \u090f\u0902\u0921 \u091c\u0928\u0930\u0932 \u0938\u094d\u091f\u094b\u0930\u094d\u0938", "phone": "022 2644 1211;+91 93215 16281;+91 88796 61211"}}, {"type": "node", "id": 10052708697, "lat": 19.0602984, "lon": 72.9105212, "tags": {"addr:city": "mumbai", "addr:postcode": "400043", "addr:street": "P.L. Lokhande Marg", "amenity": "pharmacy", "dispensing": "yes", "healthcare": "pharmacy", "name": "Metro medical"}}, {"type": "node", "id": 10241660710, "lat": 19.1673865, "lon": 72.9444782, "tags": {"addr:housenumber": "F-25 Saidham", "addr:postcode": "400080", "addr:street": "Purushottam Kheraj Road", "amenity": "pharmacy", "name:en": "Sai Krishna Medical and General Stores"}}, {"type": "node", "id": 10608361194, "lat": 19.0578462, "lon": 72.8335819, "tags": {"amenity": "pharmacy", "healthcare": "pharmacy", "name": "Prime Pharma Distributor"}}, {"type": "node", "id": 10648568368, "lat": 19.2023534, "lon": 72.84279}, {"type": "node", "id": 10648568369, "lat": 19.2022685, "lon": 72.8431259}, {"type": "node", "id": 10648568370, "lat": 19.2020192, "lon": 72.8430401}, {"type": "node", "id": 10648568371, "lat": 19.2022161, "lon": 72.8427455}, {"type": "node", "id": 11055126102, "lat": 19.0453941, "lon": 72.9138673, "tags": {"amenity": "pharmacy", "healthcare": "pharmacy", "name": "Tulsi medicals"}}, {"type": "node", "id": 11098458923, "lat": 19.0456943, "lon": 72.902467, "tags": {"amenity": "pharmacy", "healthcare": "pharmacy", "name": "Orange Pharmacy"}}, {"type": "node", "id": 11098464324, "lat": 19.0456891, "lon": 72.9025701, "tags": {"amenity": "pharmacy", "healthcare": "pharmacy"}}, {"type": "node", "id": 11098474640, "lat": 19.0456907, "lon": 72.9025243, "tags": {"amenity": "pharmacy", "healthcare": "pharmacy"}}, {"type": "node", "id": 11241778438, "lat": 19.10155, "lon": 72.9097096, "tags": {"addr:housenumber": "4A", "addr:postcode": "400086", "addr:street": "Ram Nagar", "amenity": "pharmacy", "name:en": "Himalaya Medical & General Stores", "name:hi": "\u0939\u093f\u092e\u093e\u0932\u092f \u0935\u0948\u0926\u094d\u092f\u0915\u0940\u092f & \u0938\u093e\u092e\u093e\u0928\u094d\u092f \u0938\u094d\u091f\u094b\u0905\u0930\u094d\u0938", "opening_hours": "Mo-Su 09:00-23:00"}}, {"type": "node", "id": 11257224313, "lat": 19.1520307, "lon": 72.9392542}, {"type": "node", "id": 11257224314, "lat": 19.1520914, "lon": 72.939329}, {"type": "node", "id": 11257224315, "lat": 19.1520241, "lon": 72.9393978}, {"type": "node", "id": 11257224316, "lat": 19.1519601, "lon": 72.9393255}, {"type": "node", "id": 11296371069, "lat": 19.0627098, "lon": 72.82934, "tags": {"amenity": "pharmacy", "healthcare": "pharmacy", "name": "Modern Stores", "name:en": "Modern Stores"}}, {"type": "node", "id": 11298617858, "lat": 19.0649138, "lon": 72.8298226, "tags": {"amenity": "pharmacy", "brand": "Wellness Forever", "brand:wikidata": "Q123114721", "healthcare": "pharmacy", "name": "Wellness Forever"}}, {"type": "node", "id": 11298645363, "lat": 19.0656021, "lon": 72.8316198, "tags": {"amenity": "pharmacy", "healthcare": "pharmacy", "name": "Noble Plus", "name:en": "Noble Plus"}}, {"type": "node", "id": 11364270986, "lat": 19.0587399, "lon": 72.8365291, "tags": {"amenity": "pharmacy", "brand": "Apollo Pharmacy", "brand:wikidata": "Q62562612", "healthcare": "pharmacy", "name": "Apollo Pharmacy"}}, {"type": "node", "id": 11383288499, "lat": 19.1105073, "lon": 72.8267161, "tags": {"addr:city": "Mumbai", "addr:postcode": "400049", "addr:street": "Juhu Church Road", "amenity": "pharmacy", "healthcare": "pharmacy", "name": "Bafna Medical and General Stores", "name:en": "Bafna Medical and General Stores"}}, {"type": "node", "id": 11383288502, "lat": 19.1104653, "lon": 72.8267123, "tags": {"addr:city": "Mumbai", "addr:postcode": "400049", "addr:street": "Juhu Church Road", "amenity": "pharmacy", "healthcare": "pharmacy", "name": "Welcome Medical & General Stores", "name:en": "Welcome Medical & General Stores"}}, {"type": "node", "id": 11385106117, "lat": 19.0551288, "lon": 72.8296136, "tags": {"amenity": "pharmacy", "healthcare": "pharmacy", "name": "Alive United", "name:en": "Alive United"}}, {"type": "node", "id": 11439700669, "lat": 19.0292296, "lon": 72.9035646, "tags": {"amenity": "pharmacy", "name": "\u0930\u093e\u091c\u092a\u0942\u0924 \u092e\u0947\u0921\u093f\u0915\u0932", "name:en": "Rajput madicals"}}, {"type": "node", "id": 11449446312, "lat": 19.0845316, "lon": 72.8893744, "tags": {"amenity": "pharmacy", "name": "Grand Medical"}}, {"type": "node", "id": 11610034149, "lat": 19.0469461, "lon": 72.9300706, "tags": {"amenity": "pharmacy", "healthcare": "pharmacy", "name": "Soham Medical and General Store"}}, {"type": "node", "id": 11654029360, "lat": 19.2353401, "lon": 72.855097, "tags": {"amenity": "pharmacy", "dispensing": "yes", "drive_through": "no", "healthcare": "pharmacy", "name": "Cambay Medical Stores"}}, {"type": "node", "id": 12026379669, "lat": 19.0621838, "lon": 72.8424938, "tags": {"addr:postcode": "400051", "addr:street": "Daima Marg", "amenity": "pharmacy", "name": "Apple Medical", "opening_hours": "Mo-Sa,PH 08:00-12:00; Su 08:00-13:00"}}, {"type": "node", "id": 12075203456, "lat": 19.0948452, "lon": 72.8722677, "tags": {"amenity": "pharmacy", "brand": "Apollo Pharmacy", "brand:wikidata": "Q62562612", "healthcare": "pharmacy", "level": "1", "name": "Apollo Pharmacy"}}, {"type": "node", "id": 12150771701, "lat": 19.0609317, "lon": 72.8492862, "tags": {"amenity": "pharmacy", "name": "Generic Medicine Pharmacy", "outdoor_seating": "no"}}, {"type": "node", "id": 12192784842, "lat": 19.0625153, "lon": 72.8308698, "tags": {"amenity": "pharmacy", "healthcare": "pharmacy", "name": "New Liberty Drug Corner", "name:en": "New Liberty Drug Corner", "opening_hours": "24/7"}}, {"type": "node", "id": 12290006107, "lat": 19.1462254, "lon": 72.8460017, "tags": {"amenity": "pharmacy", "check_date": "2024-10-26", "healthcare": "pharmacy", "name": "Carona Chemist"}}, {"type": "node", "id": 12290034712, "lat": 19.1453198, "lon": 72.8463767, "tags": {"amenity": "pharmacy", "check_date": "2024-10-26", "healthcare": "pharmacy", "internet_access": "no", "name": "Reliable Medical", "payment:cards": "no", "payment:cash": "yes", "payment:credit_cards": "no", "payment:debit_cards": "no", "phone": "+91 98192 62635", "wheelchair": "yes"}}, {"type": "node", "id": 12313437123, "lat": 19.1410111, "lon": 72.8044809, "tags": {"addr:city": "Mumbai", "addr:district": "Andheri West", "addr:full": "Shop No.5, Avdai Niwas, Patil Gally No.3, Bunder Road, Versova, Andheri (W), Mumbai - 61", "addr:housename": "Avdai Niwas", "addr:parentstreet": "Bunder Road", "addr:postcode": "61", "addr:street": "Patil Gally No.3", "addr:subdistrict": "Versova", "addr:unit": "5", "amenity": "pharmacy", "contact:mobile": "+91-98671-71284;+91-77389-36385", "healthcare": "pharmacy", "level": "0", "name": "Vikas Medial and General Store", "wheelchair": "no"}}, {"type": "node", "id": 12317765975, "lat": 19.1363999, "lon": 72.8232737, "tags": {"addr:full": "35/D-2, Vaibhav CHS, SVP Nagar, MHADA, Versova, Andheri (W), Mumbai - 400053", "addr:housename": "D", "addr:housenumber": "35", "addr:place": "Vibhav Cooperative Housing Society", "addr:unit": "2", "amenity": "pharmacy", "contact:mobile": "+91-98920-15677;+91-88790-5396", "contact:phone": "+91-2633-8948", "healthcare": "pharmacy", "level": "0", "name": "Paras Medical and General Store"}}, {"type": "node", "id": 12317766043, "lat": 19.1365222, "lon": 72.8217498, "tags": {"addr:full": "Shop No.D/9, Saidham CHS Ltd, Plot No.47, Mhada Colony, SVP Nagar, Varsova, Andheri (W), Mumbai - 400058", "amenity": "pharmacy", "contact:mobile": "+91-91362-92809", "delivery": "yes", "healthcare": "pharmacy", "level": "0", "name": "Chamunda Medical Store"}}, {"type": "node", "id": 12317766142, "lat": 19.1357665, "lon": 72.8207593, "tags": {"addr:city": "Mumbai", "addr:housename": "B", "addr:housenumber": "1", "addr:place": "Versova Vinayak CHS", "addr:postcode": "400053", "addr:subdistrict": "Andheri West", "addr:suburb": "SVP Nagar", "amenity": "pharmacy", "contact:mobile": "+91-70400-89412;+91-84220-89412", "healthcare": "pharmacy", "level": "0", "name": "Maharashtra Medical", "name:hi": "\u092e\u0939\u093e\u0930\u093e\u0937\u094d\u091f\u094d\u0930 \u092e\u0947\u0921\u093f\u0915\u0932", "wheelchair": "no"}}, {"type": "node", "id": 12317845259, "lat": 19.1057662, "lon": 72.8587052, "tags": {"addr:full": "B-11, Nav Sheetal Coop Hsg Ltd, Justice MC Chagla Marg, Bamanwada, Ville Parle (E), Mumbai - 400 099", "amenity": "pharmacy", "healthcare": "pharmacy", "level": "0", "name": "Ashirwad Medical", "wheelchair": "no"}}, {"type": "node", "id": 12317845292, "lat": 19.1111899, "lon": 72.8586538, "tags": {"amenity": "pharmacy", "healthcare": "pharmacy", "level": "0", "name": "United Medical and General Stores"}}, {"type": "node", "id": 12328165742, "lat": 19.13633, "lon": 72.8216246, "tags": {"amenity": "pharmacy", "healthcare": "pharmacy", "level": "0", "name": "Trimurti Medico and General Store", "opening_hours": "Mo-Su 09:00-00:00", "shop": "convenience", "wheelchair": "no"}}, {"type": "node", "id": 12329881103, "lat": 19.1434995, "lon": 72.8242553, "tags": {"addr:city": "Mumbai", "addr:housename": "Twin Towers", "addr:place": "Lokhandwala Complex", "addr:postcode": "400053", "addr:subdistrict": "Andheri West", "addr:unit": "17", "amenity": "pharmacy", "contact:mobile": "+91-86938-08111;+91-97695-60515", "contact:phone": "+91-22-2636-0566;+91-22-2631-2088", "healthcare": "pharmacy", "level": "0", "name": "Guruprasad", "name:hi": "\u0917\u0941\u0930\u0941\u092a\u094d\u0930\u0938\u093e\u0926"}}, {"type": "node", "id": 12346531474, "lat": 19.0562692, "lon": 72.834355, "tags": {"amenity": "pharmacy", "brand": "Wellness Forever", "brand:wikidata": "Q123114721", "healthcare": "pharmacy", "name": "Wellness Forever"}}, {"type": "node", "id": 12353886144, "lat": 19.054766, "lon": 72.836488, "tags": {"amenity": "pharmacy", "healthcare": "pharmacy", "name": "Leelavati Medical", "name:en": "Leelavati Medical", "name:mr": "\u0932\u0940\u0932\u093e\u0935\u0924\u0940 \u092e\u0947\u0921\u0940\u0915\u0932"}}, {"type": "node", "id": 12408808753, "lat": 19.0789383, "lon": 72.8446344, "tags": {"addr:city": "Mumbai", "addr:district": "Mumbai", "addr:housenumber": "Santacruz", "addr:postcode": "400055", "addr:street": "8th", "amenity": "pharmacy", "dispensing": "yes", "healthcare": "pharmacy", "name": "M R Medical", "opening_hours": "24/7"}}, {"type": "node", "id": 12408822896, "lat": 19.079065, "lon": 72.8445767, "tags": {"addr:city": "Mumbai", "addr:district": "Mumbai", "addr:housenumber": "T. P. S. II", "addr:postcode": "400055", "addr:street": "11th Road Sen Nagar", "amenity": "pharmacy", "dispensing": "yes", "healthcare": "pharmacy", "name": "Bhatia Medical", "opening_hours": "Mo-Su 09:00-23:00"}}, {"type": "node", "id": 12630665802, "lat": 19.171598, "lon": 72.953116, "tags": {"addr:postcode": "400080", "addr:street": "Sewaram Lalwani Road", "amenity": "pharmacy", "name": "Wellness Forever"}}, {"type": "node", "id": 12784254798, "lat": 19.0592086, "lon": 72.8477247, "tags": {"amenity": "pharmacy", "healthcare": "pharmacy", "name": "Esswell Pharma", "name:en": "Esswell Pharma", "name:mr": "\u090f\u0938\u094d\u0935\u0947\u0932 \u092b\u093e\u0930\u094d\u092e\u093e", "phone": "+91 70457 89598"}}, {"type": "node", "id": 12848913176, "lat": 19.1066701, "lon": 72.8263295, "tags": {"amenity": "pharmacy", "healthcare": "pharmacy", "name": "Noble Plus", "name:en": "Noble Plus"}}, {"type": "node", "id": 12848913220, "lat": 19.1070288, "lon": 72.8268071, "tags": {"amenity": "pharmacy", "healthcare": "pharmacy", "name": "Vidya Chemist", "name:en": "Vidya Chemist", "name:hi": "\u0935\u093f\u0926\u094d\u092f\u093e \u0915\u0947\u092e\u093f\u0938\u094d\u091f", "name:mr": "\u0935\u093f\u0926\u094d\u092f\u093e \u0915\u0947\u092e\u093f\u0938\u094d\u091f"}}, {"type": "node", "id": 12912776676, "lat": 19.0613817, "lon": 72.8494938, "tags": {"amenity": "pharmacy", "healthcare": "pharmacy", "name": "Bhatia Clinic", "opening_hours": "24/7"}}, {"type": "node", "id": 12921862895, "lat": 19.0617292, "lon": 72.8440527, "tags": {"amenity": "pharmacy", "healthcare": "pharmacy"}}, {"type": "node", "id": 12923020647, "lat": 19.0656019, "lon": 72.8302376, "tags": {"amenity": "pharmacy", "healthcare": "pharmacy", "name": "Guru Nanak Chemist", "name:en": "Guru Nanak Chemist", "name:mr": "\u0917\u0941\u0930\u0941 \u0928\u093e\u0928\u0915 \u091a\u0947\u092e\u093f\u0938\u094d\u091f"}}, {"type": "node", "id": 12926034662, "lat": 19.0620778, "lon": 72.835048, "tags": {"amenity": "pharmacy", "healthcare": "pharmacy", "name": "Forever Yooung", "name:en": "Forever Yooung", "name:mr": "\u092b\u0949\u0930\u0947\u0935\u094d\u0939\u0930 \u092f\u0902\u0917"}}, {"type": "node", "id": 12926508557, "lat": 19.0474509, "lon": 72.8250678, "tags": {"amenity": "pharmacy", "healthcare": "pharmacy", "name": "Shree Maruti Medical & General Store", "name:en": "Shree Maruti Medical & General Store", "name:mr": "\u0936\u094d\u0930\u0940 \u092e\u093e\u0930\u0941\u0924\u0940 \u092e\u0947\u0921\u093f\u0915\u0932 \u0906\u0923\u093f \u091c\u0928\u0930\u0932 \u0938\u094d\u091f\u094b\u0905\u0930", "phone": "+91 98197 11538"}}, {"type": "node", "id": 12927277235, "lat": 19.0478896, "lon": 72.8251204, "tags": {"amenity": "pharmacy", "healthcare": "pharmacy", "name": "National Chemist", "name:en": "National Chemist", "name:mr": "\u0928\u0945\u0936\u0928\u0932 \u0915\u0947\u092e\u093f\u0938\u094d\u091f"}}, {"type": "node", "id": 13086964886, "lat": 19.0633925, "lon": 72.8246256, "tags": {"amenity": "pharmacy", "healthcare": "pharmacy", "name": "Shree Krishna Medical & General Store", "name:en": "Shree Krishna Medical & General Store", "name:mr": "\u0936\u094d\u0930\u0940 \u0915\u0943\u0937\u094d\u0923\u093e \u092e\u0947\u0921\u093f\u0915\u0932 \u0906\u0923\u093f \u091c\u0928\u0930\u0932 \u0938\u094d\u091f\u094b\u0930"}}, {"type": "way", "id": 1143905699, "nodes": [10648568368, 10648568369, 10648568370, 10648568371, 10648568368], "tags": {"amenity": "pharmacy", "building": "yes", "healthcare": "pharmacy", "layer": "1", "name": "wellness counter", "opening_hours": "24 hours"}}, {"type": "way", "id": 1215020298, "nodes": [11257224313, 11257224314, 11257224315, 11257224316, 11257224313], "tags": {"addr:city": "Mumbai", "addr:district": "Mumbai", "addr:housenumber": "Village Road, Bhandup (W). Mumbai-400078.", "addr:postcode": "400078", "addr:street": "Bhandup Village Road", "amenity": "pharmacy", "building": "yes", "dispensing": "yes", "healthcare": "pharmacy", "name": "Krishna Medical", "opening_hours": "Mo-Su 08:00-22:00"}}]}